{"type":"FeatureCollection","features":[{"type":"Feature","properties":{"hex_id":"-1_-33","cx":116.2863,"cy":-25.1779},"geometry":{"type":"Polygon","coordinates":[[[116.74588,-25.49232],[116.20808,-25.68829],[115.74918,-25.37221],[115.8292,-24.86195],[116.36376,-24.66727],[116.82152,-24.98157],[116.74588,-25.49232]]]}},{"type":"Feature","properties":{"hex_id":"-1_-35","cx":115.0428,"cy":-26.5836},"geometry":{"type":"Polygon","coordinates":[[[115.50472,-26.90172],[114.95798,-27.09292],[114.49688,-26.77308],[114.58358,-26.26397],[115.12692,-26.07413],[115.58694,-26.39206],[115.50472,-26.90172]]]}},{"type":"Feature","properties":{"hex_id":"-23_-17","cx":105.5733,"cy":-10.5826},"geometry":{"type":"Polygon","coordinates":[[[105.95336,-10.9436],[105.46131,-11.10461],[105.08211,-10.74233],[105.19526,-10.21984],[105.68438,-10.05929],[106.06327,-10.42078],[105.95336,-10.9436]]]}},{"type":"Feature","properties":{"hex_id":"-2_-27","cx":118.8762,"cy":-20.7875},"geometry":{"type":"Polygon","coordinates":[[[119.32548,-21.0954],[118.81216,-21.30214],[118.3634,-20.99269],[118.42917,-20.47796],[118.93961,-20.27232],[119.38715,-20.58032],[119.32548,-21.0954]]]}},{"type":"Feature","properties":{"hex_id":"-30_-21","cx":97.0047,"cy":-11.6097},"geometry":{"type":"Polygon","coordinates":[[[97.36341,-11.99468],[96.85806,-12.12052],[96.50048,-11.73426],[96.64807,-11.22302],[97.15019,-11.09757],[97.50794,-11.48298],[97.36341,-11.99468]]]}},{"type":"Feature","properties":{"hex_id":"-3_-29","cx":116.741,"cy":-22.1091},"geometry":{"type":"Polygon","coordinates":[[[117.18976,-22.42324],[116.6669,-22.62156],[116.21882,-22.30588],[116.2947,-21.79346],[116.8145,-21.59628],[117.26147,-21.9104],[117.18976,-22.42324]]]}},{"type":"Feature","properties":{"hex_id":"-4_-27","cx":116.9596,"cy":-20.569},"geometry":{"type":"Polygon","coordinates":[[[117.40303,-20.88326],[116.88735,-21.08291],[116.4445,-20.76711],[116.51843,-20.25312],[117.03115,-20.05453],[117.4729,-20.36889],[117.40303,-20.88326]]]}},{"type":"Feature","properties":{"hex_id":"-4_-32","cx":113.939,"cy":-24.0926},"geometry":{"type":"Polygon","coordinates":[[[114.38776,-24.4148],[113.8511,-24.60211],[113.40315,-24.2783],[113.49281,-23.76891],[114.02618,-23.58278],[114.47317,-23.90487],[114.38776,-24.4148]]]}},{"type":"Feature","properties":{"hex_id":"-5_-30","cx":114.1982,"cy":-22.562},"geometry":{"type":"Polygon","coordinates":[[[114.64172,-22.88395],[114.11256,-23.07258],[113.66978,-22.74901],[113.7571,-22.23842],[114.28306,-22.05091],[114.72489,-22.37288],[114.64172,-22.88395]]]}},{"type":"Feature","properties":{"hex_id":"0_-24","cx":122.4629,"cy":-18.7775},"geometry":{"type":"Polygon","coordinates":[[[122.91369,-19.07482],[122.41534,-19.29578],[121.96494,-18.9969],[122.01428,-18.47836],[122.51002,-18.25845],[122.95902,-18.55605],[122.91369,-19.07482]]]}},{"type":"Feature","properties":{"hex_id":"0_-35","cx":116.0496,"cy":-26.7085},"geometry":{"type":"Polygon","coordinates":[[[116.51481,-27.02339],[115.96923,-27.21836],[115.50472,-26.90172],[115.58694,-26.39206],[116.12919,-26.19847],[116.59254,-26.51319],[116.51481,-27.02339]]]}},{"type":"Feature","properties":{"hex_id":"0_-37","cx":114.7859,"cy":-28.1113},"geometry":{"type":"Polygon","coordinates":[[[115.25347,-28.43017],[114.69871,-28.6204],[114.23198,-28.29976],[114.32109,-27.79094],[114.87235,-27.60214],[115.33799,-27.92074],[115.25347,-28.43017]]]}},{"type":"Feature","properties":{"hex_id":"10_-16","cx":135.6764,"cy":-12.9139},"geometry":{"type":"Polygon","coordinates":[[[136.13514,-13.17024],[135.68539,-13.44361],[135.22661,-13.18591],[135.21955,-12.65565],[135.66755,-12.38312],[136.12437,-12.64002],[136.13514,-13.17024]]]}},{"type":"Feature","properties":{"hex_id":"10_-19","cx":134.3316,"cy":-15.306},"geometry":{"type":"Polygon","coordinates":[[[134.79623,-15.56496],[134.33506,-15.83132],[133.87036,-15.57089],[133.86882,-15.04507],[134.32811,-14.77968],[134.79083,-15.03915],[134.79623,-15.56496]]]}},{"type":"Feature","properties":{"hex_id":"11_-27","cx":131.4575,"cy":-21.5486},"geometry":{"type":"Polygon","coordinates":[[[131.9403,-21.81358],[131.44845,-22.06583],[130.96569,-21.79922],[130.97681,-21.28175],[131.4664,-21.03082],[131.94714,-21.29606],[131.9403,-21.81358]]]}},{"type":"Feature","properties":{"hex_id":"11_-39","cx":124.9567,"cy":-30.5985},"geometry":{"type":"Polygon","coordinates":[[[125.46354,-30.88459],[124.91588,-31.11275],[124.40947,-30.8248],[124.45261,-30.31087],[124.9972,-30.08455],[125.50171,-30.37035],[125.46354,-30.88459]]]}},{"type":"Feature","properties":{"hex_id":"11_-43","cx":122.5437,"cy":-33.5503},"geometry":{"type":"Polygon","coordinates":[[[123.05813,-33.84561],[122.4899,-34.06598],[121.97605,-33.76864],[122.03224,-33.25343],[122.59706,-33.03509],[123.10909,-33.32995],[123.05813,-33.84561]]]}},{"type":"Feature","properties":{"hex_id":"12_-41","cx":124.833,"cy":-32.142},"geometry":{"type":"Polygon","coordinates":[[[125.34681,-32.42898],[124.79094,-32.65715],[124.27753,-32.36821],[124.32193,-31.85343],[124.87463,-31.62722],[125.38609,-31.91386],[125.34681,-32.42898]]]}},{"type":"Feature","properties":{"hex_id":"13_-24","cx":134.8353,"cy":-19.2227},"geometry":{"type":"Polygon","coordinates":[[[135.31611,-19.47709],[134.84112,-19.74243],[134.36031,-19.48652],[134.35661,-18.96649],[134.82961,-18.70238],[135.3083,-18.95709],[135.31611,-19.47709]]]}},{"type":"Feature","properties":{"hex_id":"14_-31","cx":132.4011,"cy":-24.6576},"geometry":{"type":"Polygon","coordinates":[[[132.89921,-24.9182],[132.39607,-25.17283],[131.89796,-24.9105],[131.90517,-24.39514],[132.40599,-24.14205],[132.90191,-24.4028],[132.89921,-24.9182]]]}},{"type":"Feature","properties":{"hex_id":"14_-34","cx":130.8489,"cy":-26.9551},"geometry":{"type":"Polygon","coordinates":[[[131.3537,-27.2208],[130.83666,-27.46969],[130.332,-27.20226],[130.34656,-26.68772],[130.86109,-26.44051],[131.36357,-26.70618],[131.3537,-27.2208]]]}},{"type":"Feature","properties":{"hex_id":"15_-30","cx":133.8969,"cy":-23.8878},"geometry":{"type":"Polygon","coordinates":[[[134.39511,-24.14344],[133.89873,-24.4035],[133.40054,-24.14623],[133.40099,-23.63041],[133.89517,-23.37187],[134.3911,-23.62764],[134.39511,-24.14344]]]}},{"type":"Feature","properties":{"hex_id":"16_-13","cx":142.3021,"cy":-10.2183},"geometry":{"type":"Polygon","coordinates":[[[142.76373,-10.45282],[142.33757,-10.75264],[141.87567,-10.51681],[141.84213,-9.98178],[142.26695,-9.68267],[142.72665,-9.91789],[142.76373,-10.45282]]]}},{"type":"Feature","properties":{"hex_id":"16_-14","cx":141.9095,"cy":-11.0506},"geometry":{"type":"Polygon","coordinates":[[[142.37331,-11.28575],[141.94357,-11.58315],[141.47947,-11.34667],[141.44731,-10.81346],[141.87567,-10.51681],[142.33757,-10.75264],[142.37331,-11.28575]]]}},{"type":"Feature","properties":{"hex_id":"16_-15","cx":141.5119,"cy":-11.8787},"geometry":{"type":"Polygon","coordinates":[[[141.97794,-12.11453],[141.54458,-12.40957],[141.07827,-12.17239],[141.04753,-11.6409],[141.47947,-11.34667],[141.94357,-11.58315],[141.97794,-12.11453]]]}},{"type":"Feature","properties":{"hex_id":"16_-21","cx":139.0172,"cy":-16.7667},"geometry":{"type":"Polygon","coordinates":[[[139.49676,-17.00761],[139.04059,-17.28921],[138.56083,-17.0468],[138.5395,-16.5238],[138.99399,-16.2433],[139.47149,-16.48471],[139.49676,-17.00761]]]}},{"type":"Feature","properties":{"hex_id":"16_-22","cx":138.5823,"cy":-17.569},"geometry":{"type":"Polygon","coordinates":[[[139.06419,-17.81099],[138.60405,-18.09048],[138.12202,-17.84702],[138.1024,-17.32514],[138.56083,-17.0468],[139.04059,-17.28921],[139.06419,-17.81099]]]}},{"type":"Feature","properties":{"hex_id":"16_-37","cx":131.3133,"cy":-29.2792},"geometry":{"type":"Polygon","coordinates":[[[131.82995,-29.54331],[131.30297,-29.79398],[130.78642,-29.52801],[130.79916,-29.01333],[131.32354,-28.76453],[131.83779,-29.02856],[131.82995,-29.54331]]]}},{"type":"Feature","properties":{"hex_id":"17_-14","cx":142.8011,"cy":-10.9865},"geometry":{"type":"Polygon","coordinates":[[[143.26627,-11.21835],[142.83878,-11.51893],[142.37331,-11.28575],[142.33757,-10.75264],[142.76373,-10.45282],[143.22696,-10.68536],[143.26627,-11.21835]]]}},{"type":"Feature","properties":{"hex_id":"17_-16","cx":142.0126,"cy":-12.6448},"geometry":{"type":"Polygon","coordinates":[[[142.48228,-12.87803],[142.04751,-13.17393],[141.57753,-12.93932],[141.54458,-12.40957],[141.97794,-12.11453],[142.44566,-12.34841],[142.48228,-12.87803]]]}},{"type":"Feature","properties":{"hex_id":"17_-17","cx":141.6108,"cy":-13.468},"geometry":{"type":"Polygon","coordinates":[[[142.08273,-13.70201],[141.64425,-13.99562],[141.17199,-13.76023],[141.1405,-13.23202],[141.57753,-12.93932],[142.04751,-13.17393],[142.08273,-13.70201]]]}},{"type":"Feature","properties":{"hex_id":"17_-23","cx":139.088,"cy":-18.332},"geometry":{"type":"Polygon","coordinates":[[[139.57386,-18.57169],[139.112,-18.85238],[138.62593,-18.61122],[138.60405,-18.09048],[139.06419,-17.81099],[139.54794,-18.05107],[139.57386,-18.57169]]]}},{"type":"Feature","properties":{"hex_id":"18_-19","cx":141.7121,"cy":-15.0479},"geometry":{"type":"Polygon","coordinates":[[[142.19014,-15.28025],[141.74641,-15.57263],[141.26807,-15.33888],[141.23578,-14.81362],[141.67802,-14.52225],[142.15404,-14.75514],[142.19014,-15.28025]]]}},{"type":"Feature","properties":{"hex_id":"18_-25","cx":139.1606,"cy":-19.8911},"geometry":{"type":"Polygon","coordinates":[[[139.65296,-20.12962],[139.18527,-20.40957],[138.69272,-20.16952],[138.67026,-19.65071],[139.13621,-19.37206],[139.62637,-19.61094],[139.65296,-20.12962]]]}},{"type":"Feature","properties":{"hex_id":"19_-17","cx":143.4267,"cy":-13.3386},"geometry":{"type":"Polygon","coordinates":[[[143.90148,-13.56601],[143.46767,-13.866],[142.99259,-13.63727],[142.95366,-13.10932],[143.38613,-12.81025],[143.85886,-13.03821],[143.90148,-13.56601]]]}},{"type":"Feature","properties":{"hex_id":"19_-18","cx":143.0318,"cy":-14.1642},"geometry":{"type":"Polygon","coordinates":[[[143.50895,-14.39233],[143.0714,-14.6901],[142.59395,-14.46056],[142.55642,-13.93407],[142.99259,-13.63727],[143.46767,-13.866],[143.50895,-14.39233]]]}},{"type":"Feature","properties":{"hex_id":"19_-21","cx":141.816,"cy":-16.6194},"geometry":{"type":"Polygon","coordinates":[[[142.30026,-16.85025],[141.85117,-17.1416],[141.36657,-16.90933],[141.33346,-16.3867],[141.78104,-16.09647],[142.26325,-16.32777],[142.30026,-16.85025]]]}},{"type":"Feature","properties":{"hex_id":"19_-28","cx":138.7845,"cy":-22.2394},"geometry":{"type":"Polygon","coordinates":[[[139.28598,-22.47823],[138.80799,-22.75574],[138.30633,-22.51532],[138.28513,-21.99873],[138.76127,-21.72268],[139.26047,-21.96177],[139.28598,-22.47823]]]}},{"type":"Feature","properties":{"hex_id":"19_-37","cx":134.4372,"cy":-29.2923},"geometry":{"type":"Polygon","coordinates":[[[134.96131,-29.5455],[134.44166,-29.80713],[133.91754,-29.55205],[133.91557,-29.03726],[134.43284,-28.77754],[134.95445,-29.03073],[134.96131,-29.5455]]]}},{"type":"Feature","properties":{"hex_id":"1_-37","cx":115.8063,"cy":-28.2379},"geometry":{"type":"Polygon","coordinates":[[[116.27732,-28.55352],[115.72372,-28.74759],[115.25347,-28.43017],[115.33799,-27.92074],[115.88814,-27.72814],[116.35722,-28.04351],[116.27732,-28.55352]]]}},{"type":"Feature","properties":{"hex_id":"1_-38","cx":115.1682,"cy":-28.9396},"geometry":{"type":"Polygon","coordinates":[[[115.64036,-29.25733],[115.08207,-29.44906],[114.61068,-29.12953],[114.69871,-28.6204],[115.25347,-28.43017],[115.72372,-28.74759],[115.64036,-29.25733]]]}},{"type":"Feature","properties":{"hex_id":"20_-23","cx":141.9225,"cy":-18.1836},"geometry":{"type":"Polygon","coordinates":[[[142.41321,-18.41299],[141.95862,-18.70348],[141.4676,-18.47257],[141.43364,-17.95223],[141.88669,-17.66296],[142.37524,-17.89283],[142.41321,-18.41299]]]}},{"type":"Feature","properties":{"hex_id":"20_-27","cx":140.2056,"cy":-21.4012},"geometry":{"type":"Polygon","coordinates":[[[140.70632,-21.63524],[140.23514,-21.91797],[139.73416,-21.68237],[139.70686,-21.1653],[140.1763,-20.88399],[140.67478,-21.11834],[140.70632,-21.63524]]]}},{"type":"Feature","properties":{"hex_id":"20_-40","cx":133.9256,"cy":-31.6131},"geometry":{"type":"Polygon","coordinates":[[[134.45981,-31.86861],[133.92762,-32.12906],[133.39335,-31.8716],[133.39386,-31.35581],[133.92353,-31.09747],[134.45521,-31.35284],[134.45981,-31.86861]]]}},{"type":"Feature","properties":{"hex_id":"21_-21","cx":143.6775,"cy":-16.4882},"geometry":{"type":"Polygon","coordinates":[[[144.16473,-16.71226],[143.72057,-17.01003],[143.23302,-16.78456],[143.19211,-16.26225],[143.63486,-15.9656],[144.11994,-16.19014],[144.16473,-16.71226]]]}},{"type":"Feature","properties":{"hex_id":"21_-26","cx":141.6064,"cy":-20.5474},"geometry":{"type":"Polygon","coordinates":[[[142.10626,-20.77667],[141.64187,-21.06459],[141.14172,-20.83371],[141.1085,-20.31612],[141.57126,-20.02957],[142.06887,-20.25926],[142.10626,-20.77667]]]}},{"type":"Feature","properties":{"hex_id":"21_-31","cx":139.3903,"cy":-24.5403},"geometry":{"type":"Polygon","coordinates":[[[139.90314,-24.77628],[139.41701,-25.05513],[138.90395,-24.81751],[138.87964,-24.30252],[139.36389,-24.0253],[139.87435,-24.26145],[139.90314,-24.77628]]]}},{"type":"Feature","properties":{"hex_id":"21_-37","cx":136.5195,"cy":-29.2647},"geometry":{"type":"Polygon","coordinates":[[[137.04815,-29.51053],[136.53373,-29.77938],[136.0049,-29.53165],[135.99314,-29.01696],[136.50532,-28.75006],[137.0315,-28.99594],[137.04815,-29.51053]]]}},{"type":"Feature","properties":{"hex_id":"21_-41","cx":134.4645,"cy":-32.3847},"geometry":{"type":"Polygon","coordinates":[[[135.00388,-32.63861],[134.46916,-32.90124],[133.9297,-32.64538],[133.92762,-32.12906],[134.45981,-31.86861],[134.99661,-32.12232],[135.00388,-32.63861]]]}},{"type":"Feature","properties":{"hex_id":"22_-20","cx":144.9984,"cy":-15.5887},"geometry":{"type":"Polygon","coordinates":[[[145.48442,-15.8084],[145.04665,-16.11144],[144.56022,-15.89029],[144.51407,-15.36697],[144.95054,-15.065],[145.43446,-15.28529],[145.48442,-15.8084]]]}},{"type":"Feature","properties":{"hex_id":"22_-23","cx":143.8077,"cy":-18.0513},"geometry":{"type":"Polygon","coordinates":[[[144.30141,-18.27383],[143.85189,-18.57078],[143.35785,-18.34674],[143.31588,-17.82677],[143.76397,-17.53103],[144.25546,-17.75406],[144.30141,-18.27383]]]}},{"type":"Feature","properties":{"hex_id":"22_-26","cx":142.5684,"cy":-20.487},"geometry":{"type":"Polygon","coordinates":[[[143.06983,-20.71286],[142.60804,-21.00406],[142.10626,-20.77667],[142.06887,-20.25926],[142.5291,-19.96944],[143.02828,-20.19566],[143.06983,-20.71286]]]}},{"type":"Feature","properties":{"hex_id":"22_-39","cx":136.5627,"cy":-30.8093},"geometry":{"type":"Polygon","coordinates":[[[137.09906,-31.0553],[136.57736,-31.32465],[136.04085,-31.07676],[136.02875,-30.56151],[136.54814,-30.29425],[137.08193,-30.54017],[137.09906,-31.0553]]]}},{"type":"Feature","properties":{"hex_id":"22_-42","cx":135.0112,"cy":-33.1553},"geometry":{"type":"Polygon","coordinates":[[[135.55586,-33.40758],[135.01862,-33.67248],[134.4739,-33.4182],[134.46916,-32.90124],[135.00388,-32.63861],[135.54586,-32.89068],[135.55586,-33.40758]]]}},{"type":"Feature","properties":{"hex_id":"23_-21","cx":145.5348,"cy":-16.3306},"geometry":{"type":"Polygon","coordinates":[[[146.02466,-16.54785],[145.5856,-16.85201],[145.09531,-16.63335],[145.04665,-16.11144],[145.48442,-15.8084],[145.97214,-16.02616],[146.02466,-16.54785]]]}},{"type":"Feature","properties":{"hex_id":"23_-29","cx":142.2591,"cy":-22.8413},"geometry":{"type":"Polygon","coordinates":[[[142.77013,-23.06735],[142.29821,-23.35642],[141.78687,-23.12875],[141.75014,-22.61335],[142.22041,-22.32583],[142.72907,-22.55218],[142.77013,-23.06735]]]}},{"type":"Feature","properties":{"hex_id":"23_-42","cx":136.0904,"cy":-33.1409},"geometry":{"type":"Polygon","coordinates":[[[136.63754,-33.38937],[136.10311,-33.65803],[135.55586,-33.40758],[135.54586,-32.89068],[136.07784,-32.62432],[136.62227,-32.87258],[136.63754,-33.38937]]]}},{"type":"Feature","properties":{"hex_id":"23_-43","cx":135.566,"cy":-33.925},"geometry":{"type":"Polygon","coordinates":[[[136.11593,-34.17563],[135.57617,-34.4429],[135.0261,-34.19017],[135.01862,-33.67248],[135.55586,-33.40758],[136.10311,-33.65803],[136.11593,-34.17563]]]}},{"type":"Feature","properties":{"hex_id":"24_-22","cx":146.0776,"cy":-17.0687},"geometry":{"type":"Polygon","coordinates":[[[146.57135,-17.28342],[146.13102,-17.58875],[145.63683,-17.37257],[145.5856,-16.85201],[146.02466,-16.54785],[146.51623,-16.76309],[146.57135,-17.28342]]]}},{"type":"Feature","properties":{"hex_id":"24_-23","cx":145.6885,"cy":-17.8924},"geometry":{"type":"Polygon","coordinates":[[[146.18488,-18.10804],[145.7406,-18.41141],[145.24378,-18.19426],[145.19387,-17.67472],[145.63683,-17.37257],[146.13102,-17.58875],[146.18488,-18.10804]]]}},{"type":"Feature","properties":{"hex_id":"24_-27","cx":144.0784,"cy":-21.1587},"geometry":{"type":"Polygon","coordinates":[[[144.58551,-21.37871],[144.12488,-21.67461],[143.61735,-21.45303],[143.57316,-20.93675],[144.0323,-20.64229],[144.53713,-20.86268],[144.58551,-21.37871]]]}},{"type":"Feature","properties":{"hex_id":"24_-32","cx":141.9371,"cy":-25.1871},"geometry":{"type":"Polygon","coordinates":[[[142.45803,-25.41369],[141.97553,-25.70101],[141.45427,-25.47269],[141.41829,-24.95853],[141.89905,-24.67291],[142.41753,-24.89976],[142.45803,-25.41369]]]}},{"type":"Feature","properties":{"hex_id":"24_-41","cx":137.6779,"cy":-32.3307},"geometry":{"type":"Polygon","coordinates":[[[138.22453,-32.57319],[137.69825,-32.84694],[137.15145,-32.60251],[137.13381,-32.08643],[137.65781,-31.81492],[138.20173,-32.05727],[138.22453,-32.57319]]]}},{"type":"Feature","properties":{"hex_id":"24_-42","cx":137.1692,"cy":-33.119},"geometry":{"type":"Polygon","coordinates":[[[137.71876,-33.36358],[137.18723,-33.63597],[136.63754,-33.38937],[136.62227,-32.87258],[137.15145,-32.60251],[137.69825,-32.84694],[137.71876,-33.36358]]]}},{"type":"Feature","properties":{"hex_id":"24_-43","cx":136.653,"cy":-33.9067},"geometry":{"type":"Polygon","coordinates":[[[137.20538,-34.15344],[136.66852,-34.42447],[136.11593,-34.17563],[136.10311,-33.65803],[136.63754,-33.38937],[137.18723,-33.63597],[137.20538,-34.15344]]]}},{"type":"Feature","properties":{"hex_id":"24_-44","cx":136.1289,"cy":-34.6938},"geometry":{"type":"Polygon","coordinates":[[[136.68423,-34.94288],[136.14195,-35.2126],[135.58647,-34.96142],[135.57617,-34.4429],[136.11593,-34.17563],[136.66852,-34.42447],[136.68423,-34.94288]]]}},{"type":"Feature","properties":{"hex_id":"25_-24","cx":146.2392,"cy":-18.6266},"geometry":{"type":"Polygon","coordinates":[[[146.73955,-18.83982],[146.29398,-19.14448],[145.79316,-18.92976],[145.7406,-18.41141],[146.18488,-18.10804],[146.68301,-18.32175],[146.73955,-18.83982]]]}},{"type":"Feature","properties":{"hex_id":"25_-26","cx":145.4477,"cy":-20.2656},"geometry":{"type":"Polygon","coordinates":[[[145.95355,-20.48091],[145.49984,-20.78186],[144.99358,-20.56497],[144.94376,-20.04826],[145.39609,-19.74869],[145.89963,-19.96447],[145.95355,-20.48091]]]}},{"type":"Feature","properties":{"hex_id":"25_-30","cx":143.7981,"cy":-23.5136},"geometry":{"type":"Polygon","coordinates":[[[144.315,-23.73385],[143.84425,-24.02783],[143.3269,-23.80596],[143.2831,-23.29146],[143.75228,-22.99908],[144.26684,-23.21963],[144.315,-23.73385]]]}},{"type":"Feature","properties":{"hex_id":"25_-41","cx":138.7481,"cy":-32.2978},"geometry":{"type":"Polygon","coordinates":[[[139.29695,-32.53637],[138.77362,-32.81378],[138.22453,-32.57319],[138.20173,-32.05727],[138.72284,-31.78212],[139.26898,-32.02065],[139.29695,-32.53637]]]}},{"type":"Feature","properties":{"hex_id":"25_-42","cx":138.2476,"cy":-33.0895},"geometry":{"type":"Polygon","coordinates":[[[138.79938,-33.33023],[138.27081,-33.6063],[137.71876,-33.36358],[137.69825,-32.84694],[138.22453,-32.57319],[138.77362,-32.81378],[138.79938,-33.33023]]]}},{"type":"Feature","properties":{"hex_id":"25_-43","cx":137.7395,"cy":-33.8807},"geometry":{"type":"Polygon","coordinates":[[[138.29429,-34.1236],[137.7604,-34.39838],[137.20538,-34.15344],[137.18723,-33.63597],[137.71876,-33.36358],[138.27081,-33.6063],[138.29429,-34.1236]]]}},{"type":"Feature","properties":{"hex_id":"26_-25","cx":146.7966,"cy":-19.3572},"geometry":{"type":"Polygon","coordinates":[[[147.30095,-19.56799],[146.8541,-19.87398],[146.34924,-19.66169],[146.29398,-19.14448],[146.73955,-18.83982],[147.24166,-19.05107],[147.30095,-19.56799]]]}},{"type":"Feature","properties":{"hex_id":"26_-36","cx":142.173,"cy":-28.2689},"geometry":{"type":"Polygon","coordinates":[[[142.70893,-28.4944],[142.21357,-28.78235],[141.67722,-28.55501],[141.6392,-28.04141],[142.13275,-27.75541],[142.66615,-27.98109],[142.70893,-28.4944]]]}},{"type":"Feature","properties":{"hex_id":"26_-42","cx":139.3252,"cy":-33.0525},"geometry":{"type":"Polygon","coordinates":[[[139.87924,-33.2893],[139.35371,-33.56905],[138.79938,-33.33023],[138.77362,-32.81378],[139.29695,-32.53637],[139.84825,-32.77309],[139.87924,-33.2893]]]}},{"type":"Feature","properties":{"hex_id":"26_-43","cx":138.8254,"cy":-33.8472},"geometry":{"type":"Polygon","coordinates":[[[139.38251,-34.08613],[138.85166,-34.36462],[138.29429,-34.1236],[138.27081,-33.6063],[138.79938,-33.33023],[139.35371,-33.56905],[139.38251,-34.08613]]]}},{"type":"Feature","properties":{"hex_id":"26_-44","cx":138.318,"cy":-34.6415},"geometry":{"type":"Polygon","coordinates":[[[138.87819,-34.88266],[138.34195,-35.15992],[137.78153,-34.91663],[137.7604,-34.39838],[138.29429,-34.1236],[138.85166,-34.36462],[138.87819,-34.88266]]]}},{"type":"Feature","properties":{"hex_id":"26_-45","cx":137.8029,"cy":-35.4355},"geometry":{"type":"Polygon","coordinates":[[[138.36614,-35.67906],[137.82442,-35.95512],[137.26093,-35.70946],[137.24223,-35.19013],[137.78153,-34.91663],[138.34195,-35.15992],[138.36614,-35.67906]]]}},{"type":"Feature","properties":{"hex_id":"26_-46","cx":137.2798,"cy":-36.2295},"geometry":{"type":"Polygon","coordinates":[[[137.84619,-36.47547],[137.2989,-36.75036],[136.73234,-36.50224],[136.71615,-35.98171],[137.26093,-35.70946],[137.82442,-35.95512],[137.84619,-36.47547]]]}},{"type":"Feature","properties":{"hex_id":"27_-26","cx":147.3607,"cy":-20.0843},"geometry":{"type":"Polygon","coordinates":[[[147.86917,-20.29262],[147.42106,-20.59999],[146.91212,-20.39012],[146.8541,-19.87398],[147.30095,-19.56799],[147.80708,-19.77679],[147.86917,-20.29262]]]}},{"type":"Feature","properties":{"hex_id":"27_-30","cx":145.7673,"cy":-23.3559},"geometry":{"type":"Polygon","coordinates":[[[146.28719,-23.56898],[145.8222,-23.86953],[145.3018,-23.65486],[145.24929,-23.14093],[145.71285,-22.84199],[146.23035,-23.05538],[146.28719,-23.56898]]]}},{"type":"Feature","properties":{"hex_id":"27_-34","cx":144.0815,"cy":-26.595},"geometry":{"type":"Polygon","coordinates":[[[144.61325,-26.81363],[144.1303,-27.10793],[143.59814,-26.88755],[143.5519,-26.37441],[144.03321,-26.08194],[144.56241,-26.30081],[144.61325,-26.81363]]]}},{"type":"Feature","properties":{"hex_id":"27_-38","cx":142.2959,"cy":-29.8095},"geometry":{"type":"Polygon","coordinates":[[[142.83972,-30.03476],[142.33766,-30.32335],[141.79345,-30.09627],[141.75434,-29.5824],[142.25454,-29.29589],[142.79572,-29.5212],[142.83972,-30.03476]]]}},{"type":"Feature","properties":{"hex_id":"27_-44","cx":139.4116,"cy":-34.6038},"geometry":{"type":"Polygon","coordinates":[[[139.97406,-34.841],[139.44096,-35.12199],[138.87819,-34.88266],[138.85166,-34.36462],[139.38251,-34.08613],[139.94215,-34.3232],[139.97406,-34.841]]]}},{"type":"Feature","properties":{"hex_id":"27_-45","cx":138.905,"cy":-35.4013},"geometry":{"type":"Polygon","coordinates":[[[139.47062,-35.64088],[138.93205,-35.92072],[138.36614,-35.67906],[138.34195,-35.15992],[138.87819,-34.88266],[139.44096,-35.12199],[139.47062,-35.64088]]]}},{"type":"Feature","properties":{"hex_id":"28_-27","cx":147.9318,"cy":-20.8079},"geometry":{"type":"Polygon","coordinates":[[[148.44432,-21.01377],[147.99498,-21.32258],[147.48191,-21.11513],[147.42106,-20.59999],[147.86917,-20.29262],[148.37937,-20.49897],[148.44432,-21.01377]]]}},{"type":"Feature","properties":{"hex_id":"28_-32","cx":145.9335,"cy":-24.8958},"geometry":{"type":"Polygon","coordinates":[[[146.46078,-25.10786],[145.98994,-25.40852],[145.46218,-25.19476],[145.40824,-24.68173],[145.87761,-24.3828],[146.4024,-24.59518],[146.46078,-25.10786]]]}},{"type":"Feature","properties":{"hex_id":"28_-41","cx":141.9536,"cy":-32.154},"geometry":{"type":"Polygon","coordinates":[[[142.50871,-32.38096],[141.99466,-32.66919],[141.43919,-32.44024],[141.40093,-31.92506],[141.91302,-31.63913],[142.46533,-31.86611],[142.50871,-32.38096]]]}},{"type":"Feature","properties":{"hex_id":"28_-44","cx":140.5043,"cy":-34.5584},"geometry":{"type":"Polygon","coordinates":[[[141.06898,-34.79164],[140.53909,-35.07633],[139.97406,-34.841],[139.94215,-34.3232],[140.46987,-34.04103],[141.03169,-34.27415],[141.06898,-34.79164]]]}},{"type":"Feature","properties":{"hex_id":"28_-45","cx":140.0063,"cy":-35.3594},"geometry":{"type":"Polygon","coordinates":[[[140.57421,-35.59494],[140.03886,-35.87852],[139.47062,-35.64088],[139.44096,-35.12199],[139.97406,-34.841],[140.53909,-35.07633],[140.57421,-35.59494]]]}},{"type":"Feature","properties":{"hex_id":"29_-27","cx":148.8913,"cy":-20.7033},"geometry":{"type":"Polygon","coordinates":[[[149.40504,-20.90568],[148.95862,-21.21768],[148.44432,-21.01377],[148.37937,-20.49897],[148.82461,-20.18841],[149.33599,-20.39124],[149.40504,-20.90568]]]}},{"type":"Feature","properties":{"hex_id":"29_-29","cx":148.123,"cy":-22.3505},"geometry":{"type":"Polygon","coordinates":[[[148.64263,-22.55512],[148.18785,-22.86378],[147.66765,-22.65756],[147.6052,-22.14388],[148.05871,-21.83678],[148.57594,-22.04181],[148.64263,-22.55512]]]}},{"type":"Feature","properties":{"hex_id":"29_-34","cx":146.1043,"cy":-26.4334},"geometry":{"type":"Polygon","coordinates":[[[146.63913,-26.64464],[146.1623,-26.94562],[145.62696,-26.73265],[145.57153,-26.22018],[146.04687,-25.92104],[146.57914,-26.13255],[146.63913,-26.64464]]]}},{"type":"Feature","properties":{"hex_id":"29_-40","cx":143.4805,"cy":-31.2856},"geometry":{"type":"Polygon","coordinates":[[[144.03422,-31.50676],[143.52849,-31.79974],[142.97427,-31.57664],[142.92899,-31.06244],[143.4329,-30.77169],[143.98392,-30.99293],[144.03422,-31.50676]]]}},{"type":"Feature","properties":{"hex_id":"29_-43","cx":142.0779,"cy":-33.7009},"geometry":{"type":"Polygon","coordinates":[[[142.64141,-33.928],[142.12014,-34.21746],[141.55622,-33.98831],[141.51683,-33.47182],[142.03608,-33.1848],[142.59674,-33.41186],[142.64141,-33.928]]]}},{"type":"Feature","properties":{"hex_id":"29_-44","cx":141.596,"cy":-34.5053},"geometry":{"type":"Polygon","coordinates":[[[142.16279,-34.73461],[141.63617,-35.02297],[141.06898,-34.79164],[141.03169,-34.27415],[141.55622,-33.98831],[142.12014,-34.21746],[142.16279,-34.73461]]]}},{"type":"Feature","properties":{"hex_id":"29_-45","cx":141.1066,"cy":-35.3098},"geometry":{"type":"Polygon","coordinates":[[[141.67674,-35.54124],[141.14469,-35.82854],[140.57421,-35.59494],[140.53909,-35.07633],[141.06898,-34.79164],[141.63617,-35.02297],[141.67674,-35.54124]]]}},{"type":"Feature","properties":{"hex_id":"29_-46","cx":140.6097,"cy":-36.1143},"geometry":{"type":"Polygon","coordinates":[[[141.18311,-36.34807],[140.64553,-36.63434],[140.07175,-36.39837],[140.03886,-35.87852],[140.57421,-35.59494],[141.14469,-35.82854],[141.18311,-36.34807]]]}},{"type":"Feature","properties":{"hex_id":"29_-47","cx":140.105,"cy":-36.919},"geometry":{"type":"Polygon","coordinates":[[[140.68172,-37.15525],[140.13852,-37.44054],[139.56142,-37.20211],[139.53085,-36.68089],[140.07175,-36.39837],[140.64553,-36.63434],[140.68172,-37.15525]]]}},{"type":"Feature","properties":{"hex_id":"2_-19","cx":126.9455,"cy":-15.1427},"geometry":{"type":"Polygon","coordinates":[[[127.39364,-15.42783],[126.91808,-15.66762],[126.47018,-15.38104],[126.49941,-14.85568],[126.97272,-14.61678],[127.41905,-14.90236],[127.39364,-15.42783]]]}},{"type":"Feature","properties":{"hex_id":"2_-23","cx":124.8888,"cy":-18.1715},"geometry":{"type":"Polygon","coordinates":[[[125.3432,-18.46119],[124.85187,-18.69141],[124.39778,-18.40028],[124.43655,-17.88015],[124.92541,-17.65096],[125.37797,-17.94088],[125.3432,-18.46119]]]}},{"type":"Feature","properties":{"hex_id":"2_-33","cx":119.2787,"cy":-25.5064},"geometry":{"type":"Polygon","coordinates":[[[119.74786,-25.81108],[119.21389,-26.01815],[118.74534,-25.71177],[118.81213,-25.20012],[119.343,-24.99442],[119.81018,-25.29901],[119.74786,-25.81108]]]}},{"type":"Feature","properties":{"hex_id":"2_-35","cx":118.0695,"cy":-26.9373},"geometry":{"type":"Polygon","coordinates":[[[118.54131,-27.24571],[117.99824,-27.4482],[117.52705,-27.13806],[117.60024,-26.62735],[118.14007,-26.4263],[118.60994,-26.73453],[118.54131,-27.24571]]]}},{"type":"Feature","properties":{"hex_id":"2_-37","cx":116.829,"cy":-28.3574},"geometry":{"type":"Polygon","coordinates":[[[117.3034,-28.66978],[116.75104,-28.86768],[116.27732,-28.55352],[116.35722,-28.04351],[116.90618,-27.84711],[117.37864,-28.15923],[117.3034,-28.66978]]]}},{"type":"Feature","properties":{"hex_id":"2_-38","cx":116.1967,"cy":-29.0635},"geometry":{"type":"Polygon","coordinates":[[[116.67238,-29.37801],[116.1153,-29.5736],[115.64036,-29.25733],[115.72372,-28.74759],[116.27732,-28.55352],[116.75104,-28.86768],[116.67238,-29.37801]]]}},{"type":"Feature","properties":{"hex_id":"2_-39","cx":115.5562,"cy":-29.7671},"geometry":{"type":"Polygon","coordinates":[[[116.03314,-30.08377],[115.47129,-30.27705],[114.99517,-29.9586],[115.08207,-29.44906],[115.64036,-29.25733],[116.1153,-29.5736],[116.03314,-30.08377]]]}},{"type":"Feature","properties":{"hex_id":"30_-31","cx":148.3193,"cy":-23.8892},"geometry":{"type":"Polygon","coordinates":[[[148.84624,-24.09265],[148.38591,-24.40136],[147.85838,-24.19625],[147.79424,-23.68371],[148.25329,-23.37666],[148.77776,-23.5805],[148.84624,-24.09265]]]}},{"type":"Feature","properties":{"hex_id":"30_-36","cx":146.2799,"cy":-27.9698},"geometry":{"type":"Polygon","coordinates":[[[146.82244,-28.18035],[146.33946,-28.48188],[145.79633,-28.26957],[145.73935,-27.75731],[146.22081,-27.45775],[146.76078,-27.6685],[146.82244,-28.18035]]]}},{"type":"Feature","properties":{"hex_id":"30_-38","cx":145.4215,"cy":-29.5928},"geometry":{"type":"Polygon","coordinates":[[[145.97048,-29.80661],[145.47791,-30.10553],[144.92838,-29.88991],[144.87462,-29.37707],[145.36556,-29.08025],[145.91189,-29.29418],[145.97048,-29.80661]]]}},{"type":"Feature","properties":{"hex_id":"30_-43","cx":143.1598,"cy":-33.637},"geometry":{"type":"Polygon","coordinates":[[[143.72527,-33.8601],[143.20733,-34.15316],[142.64141,-33.928],[142.59674,-33.41186],[143.11275,-33.12126],[143.67536,-33.34436],[143.72527,-33.8601]]]}},{"type":"Feature","properties":{"hex_id":"30_-46","cx":141.7177,"cy":-36.0602},"geometry":{"type":"Polygon","coordinates":[[[142.29331,-36.28994],[141.75911,-36.57994],[141.18311,-36.34807],[141.14469,-35.82854],[141.67674,-35.54124],[142.24937,-35.77079],[142.29331,-36.28994]]]}},{"type":"Feature","properties":{"hex_id":"30_-47","cx":141.2219,"cy":-36.8684},"geometry":{"type":"Polygon","coordinates":[[[141.80092,-37.10049],[141.26112,-37.38955],[140.68172,-37.15525],[140.64553,-36.63434],[141.18311,-36.34807],[141.75911,-36.57994],[141.80092,-37.10049]]]}},{"type":"Feature","properties":{"hex_id":"30_-48","cx":140.7183,"cy":-37.6771},"geometry":{"type":"Polygon","coordinates":[[[141.30073,-37.91163],[140.75523,-38.1998],[140.17242,-37.96297],[140.13852,-37.44054],[140.68172,-37.15525],[141.26112,-37.38955],[141.30073,-37.91163]]]}},{"type":"Feature","properties":{"hex_id":"31_-31","cx":149.3041,"cy":-23.7823},"geometry":{"type":"Polygon","coordinates":[[[149.83225,-23.98218],[149.37503,-24.29411],[148.84624,-24.09265],[148.77776,-23.5805],[149.23377,-23.27024],[149.75947,-23.47046],[149.83225,-23.98218]]]}},{"type":"Feature","properties":{"hex_id":"31_-34","cx":148.1208,"cy":-26.2437},"geometry":{"type":"Polygon","coordinates":[[[148.65841,-26.44755],[148.18789,-26.75512],[147.64966,-26.54959],[147.58512,-26.03792],[148.0543,-25.73219],[148.58936,-25.93631],[148.65841,-26.44755]]]}},{"type":"Feature","properties":{"hex_id":"31_-41","cx":145.1486,"cy":-31.9432},"geometry":{"type":"Polygon","coordinates":[[[145.70911,-32.15845],[145.20492,-32.45724],[144.64382,-32.24005],[144.59025,-31.72597],[145.09272,-31.4295],[145.65048,-31.64482],[145.70911,-32.15845]]]}},{"type":"Feature","properties":{"hex_id":"31_-45","cx":143.3038,"cy":-35.1873},"geometry":{"type":"Polygon","coordinates":[[[143.87799,-35.41065],[143.35274,-35.70528],[142.77806,-35.47981],[142.73206,-34.96192],[143.25533,-34.66992],[143.82658,-34.89319],[143.87799,-35.41065]]]}},{"type":"Feature","properties":{"hex_id":"31_-46","cx":142.8245,"cy":-35.9984},"geometry":{"type":"Polygon","coordinates":[[[143.40219,-36.224],[142.87145,-36.5177],[142.29331,-36.28994],[142.24937,-35.77079],[142.77806,-35.47981],[143.35274,-35.70528],[143.40219,-36.224]]]}},{"type":"Feature","properties":{"hex_id":"31_-47","cx":142.3377,"cy":-36.8099},"geometry":{"type":"Polygon","coordinates":[[[142.91885,-37.03783],[142.38253,-37.33064],[141.80092,-37.10049],[141.75911,-36.57994],[142.29331,-36.28994],[142.87145,-36.5177],[142.91885,-37.03783]]]}},{"type":"Feature","properties":{"hex_id":"31_-48","cx":141.8432,"cy":-37.6219},"geometry":{"type":"Polygon","coordinates":[[[142.42782,-37.85231],[141.88583,-38.14427],[141.30073,-37.91163],[141.26112,-37.38955],[141.80092,-37.10049],[142.38253,-37.33064],[142.42782,-37.85231]]]}},{"type":"Feature","properties":{"hex_id":"32_-30","cx":150.6629,"cy":-22.842},"geometry":{"type":"Polygon","coordinates":[[[151.18904,-23.03696],[150.73925,-23.3536],[150.21239,-23.157],[150.13845,-22.64493],[150.58715,-22.3299],[151.11089,-22.52533],[151.18904,-23.03696]]]}},{"type":"Feature","properties":{"hex_id":"32_-31","cx":150.287,"cy":-23.6687},"geometry":{"type":"Polygon","coordinates":[[[150.81631,-23.86487],[150.36224,-24.18],[149.83225,-23.98218],[149.75947,-23.47046],[150.21239,-23.157],[150.73925,-23.3536],[150.81631,-23.86487]]]}},{"type":"Feature","properties":{"hex_id":"32_-37","cx":147.9138,"cy":-28.5954},"geometry":{"type":"Polygon","coordinates":[[[148.46253,-28.79992],[147.98136,-29.10683],[147.43199,-28.90052],[147.36709,-28.38888],[147.84684,-28.08401],[148.39292,-28.28875],[148.46253,-28.79992]]]}},{"type":"Feature","properties":{"hex_id":"32_-39","cx":147.0749,"cy":-30.2282},"geometry":{"type":"Polygon","coordinates":[[[147.63037,-30.43595],[147.13955,-30.74045],[146.58351,-30.53081],[146.52164,-30.01839],[147.01092,-29.71607],[147.56362,-29.92401],[147.63037,-30.43595]]]}},{"type":"Feature","properties":{"hex_id":"32_-43","cx":145.3193,"cy":-33.4865},"geometry":{"type":"Polygon","coordinates":[[[145.88843,-33.70162],[145.37735,-34.00179],[144.80767,-33.78464],[144.75252,-33.26933],[145.26184,-32.97165],[145.82808,-33.1868],[145.88843,-33.70162]]]}},{"type":"Feature","properties":{"hex_id":"32_-44","cx":144.8634,"cy":-34.3004},"geometry":{"type":"Polygon","coordinates":[[[145.43596,-34.51762],[144.91959,-34.81681],[144.34643,-34.59758],[144.29312,-34.08127],[144.80767,-33.78464],[145.37735,-34.00179],[145.43596,-34.51762]]]}},{"type":"Feature","properties":{"hex_id":"32_-46","cx":143.9299,"cy":-35.9288},"geometry":{"type":"Polygon","coordinates":[[[144.50957,-36.15029],[143.98236,-36.44765],[143.40219,-36.224],[143.35274,-35.70528],[143.87799,-35.41065],[144.45465,-35.63204],[144.50957,-36.15029]]]}},{"type":"Feature","properties":{"hex_id":"32_-47","cx":143.4521,"cy":-36.7435},"geometry":{"type":"Polygon","coordinates":[[[144.03534,-36.96731],[143.50257,-37.26382],[142.91885,-37.03783],[142.87145,-36.5177],[143.40219,-36.224],[143.98236,-36.44765],[144.03534,-36.96731]]]}},{"type":"Feature","properties":{"hex_id":"32_-48","cx":142.9667,"cy":-37.5588},"geometry":{"type":"Polygon","coordinates":[[[143.55353,-37.78503],[143.01511,-38.08075],[142.42782,-37.85231],[142.38253,-37.33064],[142.91885,-37.03783],[143.50257,-37.26382],[143.55353,-37.78503]]]}},{"type":"Feature","properties":{"hex_id":"32_-49","cx":142.4736,"cy":-38.375},"geometry":{"type":"Polygon","coordinates":[[[143.06398,-38.60366],[142.5198,-38.89862],[141.92893,-38.66764],[141.88583,-38.14427],[142.42782,-37.85231],[143.01511,-38.08075],[143.06398,-38.60366]]]}},{"type":"Feature","properties":{"hex_id":"33_-32","cx":150.8941,"cy":-24.3758},"geometry":{"type":"Polygon","coordinates":[[[151.42768,-24.56957],[150.9725,-24.88642],[150.43817,-24.69101],[150.36224,-24.18],[150.81631,-23.86487],[151.34743,-24.05904],[151.42768,-24.56957]]]}},{"type":"Feature","properties":{"hex_id":"33_-33","cx":150.5148,"cy":-25.2017},"geometry":{"type":"Polygon","coordinates":[[[151.05165,-25.39678],[150.59209,-25.71222],[150.05453,-25.51551],[149.97977,-25.00467],[150.43817,-24.69101],[150.9725,-24.88642],[151.05165,-25.39678]]]}},{"type":"Feature","properties":{"hex_id":"33_-39","cx":148.1184,"cy":-30.1299},"geometry":{"type":"Polygon","coordinates":[[[148.67532,-30.33384],[148.18792,-30.64171],[147.63037,-30.43595],[147.56362,-29.92401],[148.04957,-29.61833],[148.60372,-29.82242],[148.67532,-30.33384]]]}},{"type":"Feature","properties":{"hex_id":"33_-41","cx":147.2706,"cy":-31.7657},"geometry":{"type":"Polygon","coordinates":[[[147.83445,-31.97305],[147.33714,-32.27874],[146.7727,-32.06944],[146.70904,-31.55629],[147.20479,-31.25294],[147.76577,-31.46043],[147.83445,-31.97305]]]}},{"type":"Feature","properties":{"hex_id":"33_-42","cx":146.837,"cy":-32.5829},"geometry":{"type":"Polygon","coordinates":[[[147.40428,-32.79214],[146.90189,-33.09679],[146.33397,-32.88562],[146.27193,-32.37169],[146.7727,-32.06944],[147.33714,-32.27874],[147.40428,-32.79214]]]}},{"type":"Feature","properties":{"hex_id":"33_-44","cx":145.9494,"cy":-34.2169},"geometry":{"type":"Polygon","coordinates":[[[146.52374,-34.43006],[146.01093,-34.73279],[145.43596,-34.51762],[145.37735,-34.00179],[145.88843,-33.70162],[146.45987,-33.91475],[146.52374,-34.43006]]]}},{"type":"Feature","properties":{"hex_id":"33_-45","cx":145.4951,"cy":-35.034},"geometry":{"type":"Polygon","coordinates":[[[146.07308,-35.24924],[145.55492,-35.55108],[144.97639,-35.33379],[144.91959,-34.81681],[145.43596,-34.51762],[146.01093,-34.73279],[146.07308,-35.24924]]]}},{"type":"Feature","properties":{"hex_id":"33_-46","cx":145.0338,"cy":-35.8514},"geometry":{"type":"Polygon","coordinates":[[[145.61529,-36.06881],[145.09169,-36.36979],[144.50957,-36.15029],[144.45465,-35.63204],[144.97639,-35.33379],[145.55492,-35.55108],[145.61529,-36.06881]]]}},{"type":"Feature","properties":{"hex_id":"33_-47","cx":144.565,"cy":-36.6693},"geometry":{"type":"Polygon","coordinates":[[[145.15021,-36.88893],[144.62107,-37.18912],[144.03534,-36.96731],[143.98236,-36.44765],[144.50957,-36.15029],[145.09169,-36.36979],[145.15021,-36.88893]]]}},{"type":"Feature","properties":{"hex_id":"33_-48","cx":144.0888,"cy":-37.4878},"geometry":{"type":"Polygon","coordinates":[[[144.67767,-37.70982],[144.1429,-38.00925],[143.55353,-37.78503],[143.50257,-37.26382],[144.03534,-36.96731],[144.62107,-37.18912],[144.67767,-37.70982]]]}},{"type":"Feature","properties":{"hex_id":"33_-49","cx":143.605,"cy":-38.3072},"geometry":{"type":"Polygon","coordinates":[[[144.19751,-38.53165],[143.65701,-38.83038],[143.06398,-38.60366],[143.01511,-38.08075],[143.55353,-37.78503],[144.1429,-38.00925],[144.19751,-38.53165]]]}},{"type":"Feature","properties":{"hex_id":"34_-34","cx":151.1315,"cy":-25.9069},"geometry":{"type":"Polygon","coordinates":[[[151.6728,-26.09955],[151.21211,-26.41684],[150.6701,-26.22251],[150.59209,-25.71222],[151.05165,-25.39678],[151.59036,-25.58979],[151.6728,-26.09955]]]}},{"type":"Feature","properties":{"hex_id":"34_-35","cx":150.7488,"cy":-26.7326},"geometry":{"type":"Polygon","coordinates":[[[151.29344,-26.92662],[150.82826,-27.2426],[150.2829,-27.04688],[150.20609,-26.53658],[150.6701,-26.22251],[151.21211,-26.41684],[151.29344,-26.92662]]]}},{"type":"Feature","properties":{"hex_id":"34_-37","cx":149.9662,"cy":-28.3805},"geometry":{"type":"Polygon","coordinates":[[[150.51763,-28.57734],[150.04323,-28.89085],[149.49112,-28.69218],[149.41682,-28.18153],[149.88995,-27.87006],[150.43867,-28.06722],[150.51763,-28.57734]]]}},{"type":"Feature","properties":{"hex_id":"34_-38","cx":149.5661,"cy":-29.2029},"geometry":{"type":"Polygon","coordinates":[[[150.12095,-29.40129],[149.64182,-29.71362],[149.08629,-29.51339],[149.01331,-29.00241],[149.49112,-28.69218],[150.04323,-28.89085],[150.12095,-29.40129]]]}},{"type":"Feature","properties":{"hex_id":"34_-40","cx":148.7476,"cy":-30.8454},"geometry":{"type":"Polygon","coordinates":[[[149.30937,-31.04711],[148.82056,-31.35724],[148.25809,-31.15367],[148.18792,-30.64171],[148.67532,-30.33384],[149.23431,-30.5357],[149.30937,-31.04711]]]}},{"type":"Feature","properties":{"hex_id":"34_-41","cx":148.3289,"cy":-31.6659},"geometry":{"type":"Polygon","coordinates":[[[148.89422,-31.8693],[148.40043,-32.17839],[147.83445,-31.97305],[147.76577,-31.46043],[148.25809,-31.15367],[148.82056,-31.35724],[148.89422,-31.8693]]]}},{"type":"Feature","properties":{"hex_id":"34_-42","cx":147.9038,"cy":-32.486},"geometry":{"type":"Polygon","coordinates":[[[148.47264,-32.69123],[147.9738,-32.99931],[147.40428,-32.79214],[147.33714,-32.27874],[147.83445,-31.97305],[148.40043,-32.17839],[148.47264,-32.69123]]]}},{"type":"Feature","properties":{"hex_id":"34_-43","cx":147.4721,"cy":-33.3059},"geometry":{"type":"Polygon","coordinates":[[[148.04449,-33.51304],[147.54052,-33.82018],[146.96743,-33.61108],[146.90189,-33.09679],[147.40428,-32.79214],[147.9738,-32.99931],[148.04449,-33.51304]]]}},{"type":"Feature","properties":{"hex_id":"34_-44","cx":147.0336,"cy":-34.1259},"geometry":{"type":"Polygon","coordinates":[[[147.60964,-34.33492],[147.10043,-34.64116],[146.52374,-34.43006],[146.45987,-33.91475],[146.96743,-33.61108],[147.54052,-33.82018],[147.60964,-34.33492]]]}},{"type":"Feature","properties":{"hex_id":"34_-45","cx":146.5883,"cy":-34.9459},"geometry":{"type":"Polygon","coordinates":[[[147.16792,-35.15705],[146.6534,-35.46243],[146.07308,-35.24924],[146.01093,-34.73279],[146.52374,-34.43006],[147.10043,-34.64116],[147.16792,-35.15705]]]}},{"type":"Feature","properties":{"hex_id":"34_-46","cx":146.1359,"cy":-35.7663},"geometry":{"type":"Polygon","coordinates":[[[146.7192,-35.97959],[146.19926,-36.28416],[145.61529,-36.06881],[145.55492,-35.55108],[146.07308,-35.24924],[146.6534,-35.46243],[146.7192,-35.97959]]]}},{"type":"Feature","properties":{"hex_id":"34_-47","cx":145.6763,"cy":-36.5873},"geometry":{"type":"Polygon","coordinates":[[[146.2633,-36.80274],[145.73786,-37.10655],[145.15021,-36.88893],[145.09169,-36.36979],[145.61529,-36.06881],[146.19926,-36.28416],[146.2633,-36.80274]]]}},{"type":"Feature","properties":{"hex_id":"34_-48","cx":145.2093,"cy":-37.4089},"geometry":{"type":"Polygon","coordinates":[[[145.80008,-37.62668],[145.26903,-37.92979],[144.67767,-37.70982],[144.62107,-37.18912],[145.15021,-36.88893],[145.73786,-37.10655],[145.80008,-37.62668]]]}},{"type":"Feature","properties":{"hex_id":"34_-49","cx":144.7348,"cy":-38.2315},"geometry":{"type":"Polygon","coordinates":[[[145.32936,-38.45163],[144.79261,-38.75409],[144.19751,-38.53165],[144.1429,-38.00925],[144.67767,-37.70982],[145.26903,-37.92979],[145.32936,-38.45163]]]}},{"type":"Feature","properties":{"hex_id":"34_-51","cx":143.7626,"cy":-39.8801},"geometry":{"type":"Polygon","coordinates":[[[144.36474,-40.10539],[143.81629,-40.4067],[143.21363,-40.17901],[143.16323,-39.65272],[143.70956,-39.35464],[144.30842,-39.57965],[144.36474,-40.10539]]]}},{"type":"Feature","properties":{"hex_id":"35_-33","cx":152.5003,"cy":-24.951},"geometry":{"type":"Polygon","coordinates":[[[153.03935,-25.13864],[152.58641,-25.46045],[152.04663,-25.27115],[151.96311,-24.7613],[152.41503,-24.44128],[152.9515,-24.62933],[153.03935,-25.13864]]]}},{"type":"Feature","properties":{"hex_id":"35_-34","cx":152.1309,"cy":-25.7808},"geometry":{"type":"Polygon","coordinates":[[[152.67326,-25.96966],[152.21593,-26.29014],[151.6728,-26.09955],[151.59036,-25.58979],[152.04663,-25.27115],[152.58641,-25.46045],[152.67326,-25.96966]]]}},{"type":"Feature","properties":{"hex_id":"35_-35","cx":151.756,"cy":-26.6091},"geometry":{"type":"Polygon","coordinates":[[[152.30174,-26.79937],[151.83995,-27.11857],[151.29344,-26.92662],[151.21211,-26.41684],[151.6728,-26.09955],[152.21593,-26.29014],[152.30174,-26.79937]]]}},{"type":"Feature","properties":{"hex_id":"35_-36","cx":151.3755,"cy":-27.4363},"geometry":{"type":"Polygon","coordinates":[[[151.92467,-27.6279],[151.45834,-27.94586],[150.90842,-27.7525],[150.82826,-27.2426],[151.29344,-26.92662],[151.83995,-27.11857],[151.92467,-27.6279]]]}},{"type":"Feature","properties":{"hex_id":"35_-38","cx":150.5973,"cy":-29.0875},"geometry":{"type":"Polygon","coordinates":[[[151.15342,-29.28203],[150.67778,-29.59765],[150.12095,-29.40129],[150.04323,-28.89085],[150.51763,-28.57734],[151.071,-28.77217],[151.15342,-29.28203]]]}},{"type":"Feature","properties":{"hex_id":"35_-40","cx":149.7954,"cy":-30.7355},"geometry":{"type":"Polygon","coordinates":[[[150.35851,-30.93328],[149.87324,-31.24675],[149.30937,-31.04711],[149.23431,-30.5357],[149.71823,-30.22449],[150.27857,-30.42246],[150.35851,-30.93328]]]}},{"type":"Feature","properties":{"hex_id":"35_-41","cx":149.3851,"cy":-31.5588},"geometry":{"type":"Polygon","coordinates":[[[149.95185,-31.75822],[149.46165,-32.07067],[148.89422,-31.8693],[148.82056,-31.35724],[149.30937,-31.04711],[149.87324,-31.24675],[149.95185,-31.75822]]]}},{"type":"Feature","properties":{"hex_id":"35_-42","cx":148.9686,"cy":-32.3817},"geometry":{"type":"Polygon","coordinates":[[[149.5389,-32.58291],[149.04367,-32.8944],[148.47264,-32.69123],[148.40043,-32.17839],[148.89422,-31.8693],[149.46165,-32.07067],[149.5389,-32.58291]]]}},{"type":"Feature","properties":{"hex_id":"35_-43","cx":148.5455,"cy":-33.2044},"geometry":{"type":"Polygon","coordinates":[[[149.11949,-33.40752],[148.61916,-33.7181],[148.04449,-33.51304],[147.9738,-32.99931],[148.47264,-32.69123],[149.04367,-32.8944],[149.11949,-33.40752]]]}},{"type":"Feature","properties":{"hex_id":"35_-44","cx":148.1159,"cy":-34.0272},"geometry":{"type":"Polygon","coordinates":[[[148.69349,-34.23223],[148.18796,-34.54194],[147.60964,-34.33492],[147.54052,-33.82018],[148.04449,-33.51304],[148.61916,-33.7181],[148.69349,-34.23223]]]}},{"type":"Feature","properties":{"hex_id":"35_-45","cx":147.6794,"cy":-34.8502},"geometry":{"type":"Polygon","coordinates":[[[148.26075,-35.05722],[147.74993,-35.36611],[147.16792,-35.15705],[147.10043,-34.64116],[147.60964,-34.33492],[148.18796,-34.54194],[148.26075,-35.05722]]]}},{"type":"Feature","properties":{"hex_id":"35_-46","cx":147.2361,"cy":-35.6736},"geometry":{"type":"Polygon","coordinates":[[[147.82113,-35.88265],[147.30493,-36.19078],[146.7192,-35.97959],[146.6534,-35.46243],[147.16792,-35.15705],[147.74993,-35.36611],[147.82113,-35.88265]]]}},{"type":"Feature","properties":{"hex_id":"35_-47","cx":146.7857,"cy":-36.4975},"geometry":{"type":"Polygon","coordinates":[[[147.37446,-36.70874],[146.85278,-37.01615],[146.2633,-36.80274],[146.19926,-36.28416],[146.7192,-35.97959],[147.30493,-36.19078],[147.37446,-36.70874]]]}},{"type":"Feature","properties":{"hex_id":"35_-48","cx":146.328,"cy":-37.3221},"geometry":{"type":"Polygon","coordinates":[[[146.92059,-37.53566],[146.39334,-37.84241],[145.80008,-37.62668],[145.73786,-37.10655],[146.2633,-36.80274],[146.85278,-37.01615],[146.92059,-37.53566]]]}},{"type":"Feature","properties":{"hex_id":"35_-49","cx":145.8629,"cy":-38.1477},"geometry":{"type":"Polygon","coordinates":[[[146.45935,-38.36363],[145.92643,-38.66978],[145.32936,-38.45163],[145.26903,-37.92979],[145.80008,-37.62668],[146.39334,-37.84241],[146.45935,-38.36363]]]}},{"type":"Feature","properties":{"hex_id":"36_-35","cx":152.7609,"cy":-26.4787},"geometry":{"type":"Polygon","coordinates":[[[153.30769,-26.66516],[152.84934,-26.98755],[152.30174,-26.79937],[152.21593,-26.29014],[152.67326,-25.96966],[153.21743,-26.15652],[153.30769,-26.66516]]]}},{"type":"Feature","properties":{"hex_id":"36_-36","cx":152.3883,"cy":-27.3085},"geometry":{"type":"Polygon","coordinates":[[[152.93858,-27.49629],[152.47572,-27.81746],[151.92467,-27.6279],[151.83995,-27.11857],[152.30174,-26.79937],[152.84934,-26.98755],[152.93858,-27.49629]]]}},{"type":"Feature","properties":{"hex_id":"36_-37","cx":152.0102,"cy":-28.1372},"geometry":{"type":"Polygon","coordinates":[[[152.56392,-28.3264],[152.09648,-28.6464],[151.54194,-28.4554],[151.45834,-27.94586],[151.92467,-27.6279],[152.47572,-27.81746],[152.56392,-28.3264]]]}},{"type":"Feature","properties":{"hex_id":"36_-39","cx":151.2366,"cy":-29.792},"geometry":{"type":"Polygon","coordinates":[[[151.79743,-29.98421],[151.32059,-30.30201],[150.75898,-30.10794],[150.67778,-29.59765],[151.15342,-29.28203],[151.71147,-29.47454],[151.79743,-29.98421]]]}},{"type":"Feature","properties":{"hex_id":"36_-40","cx":150.841,"cy":-30.6184},"geometry":{"type":"Polygon","coordinates":[[[151.40536,-30.81221],[150.9237,-31.12898],[150.35851,-30.93328],[150.27857,-30.42246],[150.75898,-30.10794],[151.32059,-30.30201],[151.40536,-30.81221]]]}},{"type":"Feature","properties":{"hex_id":"36_-41","cx":150.4392,"cy":-31.4443},"geometry":{"type":"Polygon","coordinates":[[[151.00723,-31.63982],[150.52066,-31.95561],[149.95185,-31.75822],[149.87324,-31.24675],[150.35851,-30.93328],[150.9237,-31.12898],[151.00723,-31.63982]]]}},{"type":"Feature","properties":{"hex_id":"36_-42","cx":150.0312,"cy":-32.27},"geometry":{"type":"Polygon","coordinates":[[[150.60291,-32.46721],[150.11136,-32.78207],[149.5389,-32.58291],[149.46165,-32.07067],[149.95185,-31.75822],[150.52066,-31.95561],[150.60291,-32.46721]]]}},{"type":"Feature","properties":{"hex_id":"36_-43","cx":149.6169,"cy":-33.0955},"geometry":{"type":"Polygon","coordinates":[[[150.19226,-33.29455],[149.69563,-33.60853],[149.11949,-33.40752],[149.04367,-32.8944],[149.5389,-32.58291],[150.11136,-32.78207],[150.19226,-33.29455]]]}},{"type":"Feature","properties":{"hex_id":"36_-44","cx":149.196,"cy":-33.9211},"geometry":{"type":"Polygon","coordinates":[[[149.77515,-34.12201],[149.27335,-34.43516],[148.69349,-34.23223],[148.61916,-33.7181],[149.11949,-33.40752],[149.69563,-33.60853],[149.77515,-34.12201]]]}},{"type":"Feature","properties":{"hex_id":"36_-45","cx":148.7686,"cy":-34.7469},"geometry":{"type":"Polygon","coordinates":[[[149.35142,-34.94978],[148.84436,-35.26215],[148.26075,-35.05722],[148.18796,-34.54194],[148.69349,-34.23223],[149.27335,-34.43516],[149.35142,-34.94978]]]}},{"type":"Feature","properties":{"hex_id":"36_-46","cx":148.3343,"cy":-35.5731},"geometry":{"type":"Polygon","coordinates":[[[148.92092,-35.77803],[148.40852,-36.08967],[147.82113,-35.88265],[147.74993,-35.36611],[148.26075,-35.05722],[148.84436,-35.26215],[148.92092,-35.77803]]]}},{"type":"Feature","properties":{"hex_id":"36_-47","cx":147.893,"cy":-36.3999},"geometry":{"type":"Polygon","coordinates":[[[148.48351,-36.60697],[147.96567,-36.91793],[147.37446,-36.70874],[147.30493,-36.19078],[147.82113,-35.88265],[148.40852,-36.08967],[148.48351,-36.60697]]]}},{"type":"Feature","properties":{"hex_id":"36_-49","cx":146.9891,"cy":-38.0561},"geometry":{"type":"Polygon","coordinates":[[[147.58731,-38.26768],[147.05828,-38.57747],[146.45935,-38.36363],[146.39334,-37.84241],[146.92059,-37.53566],[147.51564,-37.74713],[147.58731,-38.26768]]]}},{"type":"Feature","properties":{"hex_id":"36_-53","cx":145.0906,"cy":-41.3847},"geometry":{"type":"Polygon","coordinates":[[[145.70466,-41.60666],[145.15203,-41.91483],[144.53728,-41.69042],[144.47916,-41.16069],[145.02972,-40.85602],[145.64047,-41.07761],[145.70466,-41.60666]]]}},{"type":"Feature","properties":{"hex_id":"37_-36","cx":153.3988,"cy":-27.1737},"geometry":{"type":"Polygon","coordinates":[[[153.95003,-27.3577],[153.49068,-27.68205],[152.93858,-27.49629],[152.84934,-26.98755],[153.30769,-26.66516],[153.85629,-26.84957],[153.95003,-27.3577]]]}},{"type":"Feature","properties":{"hex_id":"37_-37","cx":153.0286,"cy":-28.005},"geometry":{"type":"Polygon","coordinates":[[[153.58344,-28.19037],[153.11955,-28.51357],[152.56392,-28.3264],[152.47572,-27.81746],[152.93858,-27.49629],[153.49068,-27.68205],[153.58344,-28.19037]]]}},{"type":"Feature","properties":{"hex_id":"37_-38","cx":152.6529,"cy":-28.8353},"geometry":{"type":"Polygon","coordinates":[[[153.21129,-29.02219],[152.74277,-29.34429],[152.18357,-29.15566],[152.09648,-28.6464],[152.56392,-28.3264],[153.11955,-28.51357],[153.21129,-29.02219]]]}},{"type":"Feature","properties":{"hex_id":"37_-39","cx":152.2715,"cy":-29.665},"geometry":{"type":"Polygon","coordinates":[[[152.83345,-29.85331],[152.36022,-30.17437],[151.79743,-29.98421],[151.71147,-29.47454],[152.18357,-29.15566],[152.74277,-29.34429],[152.83345,-29.85331]]]}},{"type":"Feature","properties":{"hex_id":"37_-40","cx":151.8842,"cy":-30.494},"geometry":{"type":"Polygon","coordinates":[[[152.4498,-30.68391],[151.97179,-31.00396],[151.40536,-30.81221],[151.32059,-30.30201],[151.79743,-29.98421],[152.36022,-30.17437],[152.4498,-30.68391]]]}},{"type":"Feature","properties":{"hex_id":"37_-41","cx":151.4909,"cy":-31.3226},"geometry":{"type":"Polygon","coordinates":[[[152.06021,-31.51414],[151.57733,-31.83324],[151.00723,-31.63982],[150.9237,-31.12898],[151.40536,-30.81221],[151.97179,-31.00396],[152.06021,-31.51414]]]}},{"type":"Feature","properties":{"hex_id":"37_-42","cx":151.0916,"cy":-32.1509},"geometry":{"type":"Polygon","coordinates":[[[151.66455,-32.34416],[151.17671,-32.66236],[150.60291,-32.46721],[150.52066,-31.95561],[151.00723,-31.63982],[151.57733,-31.83324],[151.66455,-32.34416]]]}},{"type":"Feature","properties":{"hex_id":"37_-43","cx":150.686,"cy":-32.9792},"geometry":{"type":"Polygon","coordinates":[[[151.26268,-33.17416],[150.7698,-33.49151],[150.19226,-33.29455],[150.11136,-32.78207],[150.60291,-32.46721],[151.17671,-32.66236],[151.26268,-33.17416]]]}},{"type":"Feature","properties":{"hex_id":"37_-44","cx":150.274,"cy":-33.8075},"geometry":{"type":"Polygon","coordinates":[[[150.85447,-34.0043],[150.35646,-34.32085],[149.77515,-34.12201],[149.69563,-33.60853],[150.19226,-33.29455],[150.7698,-33.49151],[150.85447,-34.0043]]]}},{"type":"Feature","properties":{"hex_id":"37_-45","cx":149.8554,"cy":-34.636},"geometry":{"type":"Polygon","coordinates":[[[150.43976,-34.83477],[149.93653,-35.15058],[149.35142,-34.94978],[149.27335,-34.43516],[149.77515,-34.12201],[150.35646,-34.32085],[150.43976,-34.83477]]]}},{"type":"Feature","properties":{"hex_id":"37_-46","cx":149.4303,"cy":-35.465},"geometry":{"type":"Polygon","coordinates":[[[150.01843,-35.66576],[149.50988,-35.98087],[148.92092,-35.77803],[148.84436,-35.26215],[149.35142,-34.94978],[149.93653,-35.15058],[150.01843,-35.66576]]]}},{"type":"Feature","properties":{"hex_id":"37_-47","cx":148.9982,"cy":-36.2946},"geometry":{"type":"Polygon","coordinates":[[[149.5903,-36.49746],[149.07635,-36.81194],[148.48351,-36.60697],[148.40852,-36.08967],[148.92092,-35.77803],[149.50988,-35.98087],[149.5903,-36.49746]]]}},{"type":"Feature","properties":{"hex_id":"37_-48","cx":148.5593,"cy":-37.125},"geometry":{"type":"Polygon","coordinates":[[[149.15523,-37.33007],[148.63577,-37.64398],[148.03903,-37.43678],[147.96567,-36.91793],[148.48351,-36.60697],[149.07635,-36.81194],[149.15523,-37.33007]]]}},{"type":"Feature","properties":{"hex_id":"37_-53","cx":146.2539,"cy":-41.2971},"geometry":{"type":"Polygon","coordinates":[[[146.87001,-41.51457],[146.32148,-41.82655],[145.70466,-41.60666],[145.64047,-41.07761],[146.18704,-40.76914],[146.79977,-40.98625],[146.87001,-41.51457]]]}},{"type":"Feature","properties":{"hex_id":"37_-54","cx":145.7695,"cy":-42.1372},"geometry":{"type":"Polygon","coordinates":[[[146.38977,-42.35746],[145.8351,-42.66926],[145.21417,-42.44647],[145.15203,-41.91483],[145.70466,-41.60666],[146.32148,-41.82655],[146.38977,-42.35746]]]}},{"type":"Feature","properties":{"hex_id":"38_-38","cx":153.6771,"cy":-28.6987},"geometry":{"type":"Polygon","coordinates":[[[154.23644,-28.88164],[153.77154,-29.20695],[153.21129,-29.02219],[153.11955,-28.51357],[153.58344,-28.19037],[154.14009,-28.37369],[154.23644,-28.88164]]]}},{"type":"Feature","properties":{"hex_id":"38_-40","cx":152.925,"cy":-30.3624},"geometry":{"type":"Polygon","coordinates":[[[153.49169,-30.54842],[153.01738,-30.87172],[152.4498,-30.68391],[152.36022,-30.17437],[152.83345,-29.85331],[153.39735,-30.03957],[153.49169,-30.54842]]]}},{"type":"Feature","properties":{"hex_id":"38_-41","cx":152.5402,"cy":-31.1936},"geometry":{"type":"Polygon","coordinates":[[[153.11065,-31.3812],[152.63151,-31.70357],[152.06021,-31.51414],[151.97179,-31.00396],[152.4498,-30.68391],[153.01738,-30.87172],[153.11065,-31.3812]]]}},{"type":"Feature","properties":{"hex_id":"38_-42","cx":152.1495,"cy":-32.0246},"geometry":{"type":"Polygon","coordinates":[[[152.72366,-32.21379],[152.2396,-32.53529],[151.66455,-32.34416],[151.57733,-31.83324],[152.06021,-31.51414],[152.63151,-31.70357],[152.72366,-32.21379]]]}},{"type":"Feature","properties":{"hex_id":"38_-43","cx":151.7526,"cy":-32.8554},"geometry":{"type":"Polygon","coordinates":[[[152.33059,-33.04637],[151.84152,-33.36705],[151.26268,-33.17416],[151.17671,-32.66236],[151.66455,-32.34416],[152.2396,-32.53529],[152.33059,-33.04637]]]}},{"type":"Feature","properties":{"hex_id":"38_-44","cx":151.3495,"cy":-33.6864},"geometry":{"type":"Polygon","coordinates":[[[151.9313,-33.87911],[151.43713,-34.19903],[150.85447,-34.0043],[150.7698,-33.49151],[151.26268,-33.17416],[151.84152,-33.36705],[151.9313,-33.87911]]]}},{"type":"Feature","properties":{"hex_id":"38_-45","cx":150.94,"cy":-34.5176},"geometry":{"type":"Polygon","coordinates":[[[151.52564,-34.71221],[151.02629,-35.03142],[150.43976,-34.83477],[150.35646,-34.32085],[150.85447,-34.0043],[151.43713,-34.19903],[151.52564,-34.71221]]]}},{"type":"Feature","properties":{"hex_id":"38_-46","cx":150.5239,"cy":-35.3493},"geometry":{"type":"Polygon","coordinates":[[[151.11348,-35.54585],[150.60886,-35.86441],[150.01843,-35.66576],[149.93653,-35.15058],[150.43976,-34.83477],[151.02629,-35.03142],[151.11348,-35.54585]]]}},{"type":"Feature","properties":{"hex_id":"38_-47","cx":150.1011,"cy":-36.1816},"geometry":{"type":"Polygon","coordinates":[[[150.69467,-36.38024],[150.18467,-36.69819],[149.5903,-36.49746],[149.50988,-35.98087],[150.01843,-35.66576],[150.60886,-35.86441],[150.69467,-36.38024]]]}},{"type":"Feature","properties":{"hex_id":"38_-48","cx":149.6715,"cy":-37.0148},"geometry":{"type":"Polygon","coordinates":[[[150.26904,-37.21556],[149.75358,-37.53298],[149.15523,-37.33007],[149.07635,-36.81194],[149.5903,-36.49746],[150.18467,-36.69819],[150.26904,-37.21556]]]}},{"type":"Feature","properties":{"hex_id":"38_-52","cx":147.8814,"cy":-40.3605},"geometry":{"type":"Polygon","coordinates":[[[148.49525,-40.57073],[147.95688,-40.88666],[147.34228,-40.67403],[147.27017,-40.1481],[147.80676,-39.83555],[148.41724,-40.04559],[148.49525,-40.57073]]]}},{"type":"Feature","properties":{"hex_id":"38_-53","cx":147.4151,"cy":-41.2013},"geometry":{"type":"Polygon","coordinates":[[[148.03313,-41.41418],[147.48877,-41.72991],[146.87001,-41.51457],[146.79977,-40.98625],[147.34228,-40.67403],[147.95688,-40.88666],[148.03313,-41.41418]]]}},{"type":"Feature","properties":{"hex_id":"38_-54","cx":146.941,"cy":-42.0443},"geometry":{"type":"Polygon","coordinates":[[[147.56318,-42.26003],[147.01272,-42.57563],[146.38977,-42.35746],[146.32148,-41.82655],[146.87001,-41.51457],[147.48877,-41.72991],[147.56318,-42.26003]]]}},{"type":"Feature","properties":{"hex_id":"38_-55","cx":146.4588,"cy":-42.89},"geometry":{"type":"Polygon","coordinates":[[[147.08522,-43.10854],[146.52854,-43.42411],[145.90136,-43.20296],[145.8351,-42.66926],[146.38977,-42.35746],[147.01272,-42.57563],[147.08522,-43.10854]]]}},{"type":"Feature","properties":{"hex_id":"39_-54","cx":148.1102,"cy":-41.9431},"geometry":{"type":"Polygon","coordinates":[[[148.73422,-42.15421],[148.18804,-42.47358],[147.56318,-42.26003],[147.48877,-41.72991],[148.03313,-41.41418],[148.65372,-41.62496],[148.73422,-42.15421]]]}},{"type":"Feature","properties":{"hex_id":"39_-55","cx":147.6384,"cy":-42.7917},"geometry":{"type":"Polygon","coordinates":[[[148.26674,-43.00562],[147.71439,-43.32501],[147.08522,-43.10854],[147.01272,-42.57563],[147.56318,-42.26003],[148.18804,-42.47358],[148.26674,-43.00562]]]}},{"type":"Feature","properties":{"hex_id":"39_-56","cx":147.1585,"cy":-43.6432},"geometry":{"type":"Polygon","coordinates":[[[147.79122,-43.86006],[147.23257,-44.17956],[146.59905,-43.96004],[146.52854,-43.42411],[147.08522,-43.10854],[147.71439,-43.32501],[147.79122,-43.86006]]]}},{"type":"Feature","properties":{"hex_id":"3_-28","cx":123.1435,"cy":-21.9545},"geometry":{"type":"Polygon","coordinates":[[[123.60822,-22.24763],[123.09766,-22.46974],[122.63334,-22.17496],[122.68109,-21.65958],[123.18892,-21.43871],[123.65172,-21.732],[123.60822,-22.24763]]]}},{"type":"Feature","properties":{"hex_id":"3_-37","cx":117.8538,"cy":-28.4698},"geometry":{"type":"Polygon","coordinates":[[[118.33159,-28.77894],[117.78054,-28.98067],[117.3034,-28.66978],[117.37864,-28.15923],[117.92634,-27.95904],[118.40215,-28.26788],[118.33159,-28.77894]]]}},{"type":"Feature","properties":{"hex_id":"3_-39","cx":116.593,"cy":-29.8884},"geometry":{"type":"Polygon","coordinates":[[[117.07344,-30.20176],[116.51284,-30.39895],[116.03314,-30.08377],[116.1153,-29.5736],[116.67238,-29.37801],[117.15081,-29.691],[117.07344,-30.20176]]]}},{"type":"Feature","properties":{"hex_id":"3_-40","cx":115.9502,"cy":-30.5941},"geometry":{"type":"Polygon","coordinates":[[[116.43194,-30.90965],[115.86649,-31.10456],[115.38555,-30.78712],[115.47129,-30.27705],[116.03314,-30.08377],[116.51284,-30.39895],[116.43194,-30.90965]]]}},{"type":"Feature","properties":{"hex_id":"3_-41","cx":115.299,"cy":-31.2974},"geometry":{"type":"Polygon","coordinates":[[[115.78198,-31.61526],[115.21163,-31.80789],[114.7295,-31.48813],[114.81889,-30.97809],[115.38555,-30.78712],[115.86649,-31.10456],[115.78198,-31.61526]]]}},{"type":"Feature","properties":{"hex_id":"4_-14","cx":131.1709,"cy":-11.3149},"geometry":{"type":"Polygon","coordinates":[[[131.61489,-11.58922],[131.1614,-11.84797],[130.71745,-11.57235],[130.72869,-11.03873],[131.18026,-10.78069],[131.6225,-11.05557],[131.61489,-11.58922]]]}},{"type":"Feature","properties":{"hex_id":"4_-15","cx":130.7061,"cy":-12.1048},"geometry":{"type":"Polygon","coordinates":[[[131.15185,-12.37987],[130.6947,-12.63611],[130.24906,-12.3597],[130.26227,-11.82784],[130.71745,-11.57235],[131.1614,-11.84797],[131.15185,-12.37987]]]}},{"type":"Feature","properties":{"hex_id":"4_-32","cx":121.8641,"cy":-24.9629},"geometry":{"type":"Polygon","coordinates":[[[122.33777,-25.25928],[121.81122,-25.47595],[121.33798,-25.17794],[121.39281,-24.66498],[121.91642,-24.44969],[122.38814,-24.74599],[122.33777,-25.25928]]]}},{"type":"Feature","properties":{"hex_id":"4_-37","cx":118.8806,"cy":-28.5752},"geometry":{"type":"Polygon","coordinates":[[[119.36175,-28.88097],[118.81209,-29.08652],[118.33159,-28.77894],[118.40215,-28.26788],[118.9485,-28.06389],[119.4276,-28.36942],[119.36175,-28.88097]]]}},{"type":"Feature","properties":{"hex_id":"4_-39","cx":117.632,"cy":-30.0025},"geometry":{"type":"Polygon","coordinates":[[[118.11593,-30.31255],[117.55667,-30.51363],[117.07344,-30.20176],[117.15081,-29.691],[117.70661,-29.49154],[118.18849,-29.80123],[118.11593,-30.31255]]]}},{"type":"Feature","properties":{"hex_id":"4_-40","cx":116.9953,"cy":-30.7127},"geometry":{"type":"Polygon","coordinates":[[[117.48063,-31.02493],[116.91648,-31.22377],[116.43194,-30.90965],[116.51284,-30.39895],[117.07344,-30.20176],[117.55667,-30.51363],[117.48063,-31.02493]]]}},{"type":"Feature","properties":{"hex_id":"4_-41","cx":116.3503,"cy":-31.4206},"geometry":{"type":"Polygon","coordinates":[[[116.83688,-31.73512],[116.26781,-31.93172],[115.78198,-31.61526],[115.86649,-31.10456],[116.43194,-30.90965],[116.91648,-31.22377],[116.83688,-31.73512]]]}},{"type":"Feature","properties":{"hex_id":"4_-42","cx":115.6967,"cy":-32.1262},"geometry":{"type":"Polygon","coordinates":[[[116.18457,-32.44319],[115.61051,-32.63753],[115.12342,-32.31867],[115.21163,-31.80789],[115.78198,-31.61526],[116.26781,-31.93172],[116.18457,-32.44319]]]}},{"type":"Feature","properties":{"hex_id":"5_-16","cx":131.1422,"cy":-12.9106},"geometry":{"type":"Polygon","coordinates":[[[131.59166,-13.1833],[131.13253,-13.44035],[130.68318,-13.16633],[130.6947,-12.63611],[131.15185,-12.37987],[131.59947,-12.65305],[131.59166,-13.1833]]]}},{"type":"Feature","properties":{"hex_id":"5_-18","cx":130.1951,"cy":-14.4763},"geometry":{"type":"Polygon","coordinates":[[[130.64805,-14.75077],[130.18136,-15.00297],[129.72854,-14.72712],[129.74415,-14.20002],[130.20877,-13.94871],[130.65986,-14.22362],[130.64805,-14.75077]]]}},{"type":"Feature","properties":{"hex_id":"5_-40","cx":118.0427,"cy":-30.824},"geometry":{"type":"Polygon","coordinates":[[[118.53149,-31.13295],[117.96874,-31.33572],[117.48063,-31.02493],[117.55667,-30.51363],[118.11593,-30.31255],[118.60264,-30.62109],[118.53149,-31.13295]]]}},{"type":"Feature","properties":{"hex_id":"5_-41","cx":117.4039,"cy":-31.5365},"geometry":{"type":"Polygon","coordinates":[[[117.89408,-31.84767],[117.32636,-32.04825],[116.83688,-31.73512],[116.91648,-31.22377],[117.48063,-31.02493],[117.96874,-31.33572],[117.89408,-31.84767]]]}},{"type":"Feature","properties":{"hex_id":"5_-42","cx":116.7565,"cy":-32.2468},"geometry":{"type":"Polygon","coordinates":[[[117.24812,-32.56036],[116.67538,-32.75872],[116.18457,-32.44319],[116.26781,-31.93172],[116.83688,-31.73512],[117.32636,-32.04825],[117.24812,-32.56036]]]}},{"type":"Feature","properties":{"hex_id":"5_-43","cx":116.1005,"cy":-32.955},"geometry":{"type":"Polygon","coordinates":[[[116.59346,-33.27107],[116.01565,-33.46721],[115.52353,-33.14919],[115.61051,-32.63753],[116.18457,-32.44319],[116.67538,-32.75872],[116.59346,-33.27107]]]}},{"type":"Feature","properties":{"hex_id":"5_-44","cx":115.4357,"cy":-33.6613},"geometry":{"type":"Polygon","coordinates":[[[115.92996,-33.97986],[115.34704,-34.17377],[114.85365,-33.85318],[114.94444,-33.34127],[115.52353,-33.14919],[116.01565,-33.46721],[115.92996,-33.97986]]]}},{"type":"Feature","properties":{"hex_id":"6_-16","cx":132.049,"cy":-12.9243},"geometry":{"type":"Polygon","coordinates":[[[132.50034,-13.19374],[132.04299,-13.45407],[131.59166,-13.1833],[131.59947,-12.65305],[132.05489,-12.39353],[132.50443,-12.66347],[132.50034,-13.19374]]]}},{"type":"Feature","properties":{"hex_id":"6_-24","cx":128.1616,"cy":-19.1239},"geometry":{"type":"Polygon","coordinates":[[[128.62722,-19.40168],[128.13847,-19.64329],[127.67299,-19.36398],[127.69802,-18.84433],[128.18444,-18.60385],[128.64816,-18.88191],[128.62722,-19.40168]]]}},{"type":"Feature","properties":{"hex_id":"6_-36","cx":121.5397,"cy":-28.0388},"geometry":{"type":"Polygon","coordinates":[[[122.02572,-28.33582],[121.48385,-28.55115],[120.99832,-28.2523],[121.05624,-27.74011],[121.59498,-27.52637],[122.07893,-27.82325],[122.02572,-28.33582]]]}},{"type":"Feature","properties":{"hex_id":"6_-40","cx":119.0921,"cy":-30.9281},"geometry":{"type":"Polygon","coordinates":[[[119.5844,-31.23367],[119.02311,-31.44038],[118.53149,-31.13295],[118.60264,-30.62109],[119.16049,-30.41611],[119.65062,-30.72129],[119.5844,-31.23367]]]}},{"type":"Feature","properties":{"hex_id":"6_-41","cx":118.4597,"cy":-31.645},"geometry":{"type":"Polygon","coordinates":[[[118.95343,-31.95289],[118.38715,-32.15743],[117.89408,-31.84767],[117.96874,-31.33572],[118.53149,-31.13295],[119.02311,-31.44038],[118.95343,-31.95289]]]}},{"type":"Feature","properties":{"hex_id":"6_-42","cx":117.8187,"cy":-32.3599},"geometry":{"type":"Polygon","coordinates":[[[118.31394,-32.67015],[117.74261,-32.87253],[117.24812,-32.56036],[117.32636,-32.04825],[117.89408,-31.84767],[118.38715,-32.15743],[118.31394,-32.67015]]]}},{"type":"Feature","properties":{"hex_id":"6_-43","cx":117.1691,"cy":-33.0728},"geometry":{"type":"Polygon","coordinates":[[[117.66577,-33.38552],[117.08934,-33.58572],[116.59346,-33.27107],[116.67538,-32.75872],[117.24812,-32.56036],[117.74261,-32.87253],[117.66577,-33.38552]]]}},{"type":"Feature","properties":{"hex_id":"6_-44","cx":116.5107,"cy":-33.7838},"geometry":{"type":"Polygon","coordinates":[[[117.0088,-34.09907],[116.42721,-34.29709],[115.92996,-33.97986],[116.01565,-33.46721],[116.59346,-33.27107],[117.08934,-33.58572],[117.0088,-34.09907]]]}},{"type":"Feature","properties":{"hex_id":"6_-45","cx":115.8434,"cy":-34.493},"geometry":{"type":"Polygon","coordinates":[[[116.34286,-34.81086],[115.75606,-35.00668],[115.25749,-34.6868],[115.34704,-34.17377],[115.92996,-33.97986],[116.42721,-34.29709],[116.34286,-34.81086]]]}},{"type":"Feature","properties":{"hex_id":"7_-15","cx":133.4099,"cy":-12.136},"geometry":{"type":"Polygon","coordinates":[[[133.86129,-12.40134],[133.40949,-12.66738],[132.95806,-12.40069],[132.96027,-11.86875],[133.41023,-11.60349],[133.85982,-11.8694],[133.86129,-12.40134]]]}},{"type":"Feature","properties":{"hex_id":"7_-18","cx":132.0309,"cy":-14.5105},"geometry":{"type":"Polygon","coordinates":[[[132.48787,-14.77837],[132.02478,-15.03718],[131.56786,-14.76785],[131.57586,-14.24066],[132.03697,-13.98276],[132.49206,-14.25115],[132.48787,-14.77837]]]}},{"type":"Feature","properties":{"hex_id":"7_-21","cx":130.5998,"cy":-16.8503},"geometry":{"type":"Polygon","coordinates":[[[131.06232,-17.12123],[130.58752,-17.37305],[130.12513,-17.10063],[130.13936,-16.57748],[130.61204,-16.32669],[131.07261,-16.59803],[131.06232,-17.12123]]]}},{"type":"Feature","properties":{"hex_id":"7_-42","cx":118.8831,"cy":-32.4657},"geometry":{"type":"Polygon","coordinates":[[[119.38189,-32.77255],[118.81206,-32.97893],[118.31394,-32.67015],[118.38715,-32.15743],[118.95343,-31.95289],[119.45004,-32.25926],[119.38189,-32.77255]]]}},{"type":"Feature","properties":{"hex_id":"7_-43","cx":118.24,"cy":-33.1833},"geometry":{"type":"Polygon","coordinates":[[[118.74034,-33.49254],[118.16537,-33.69678],[117.66577,-33.38552],[117.74261,-32.87253],[118.31394,-32.67015],[118.81206,-32.97893],[118.74034,-33.49254]]]}},{"type":"Feature","properties":{"hex_id":"7_-44","cx":117.5882,"cy":-33.899},"geometry":{"type":"Polygon","coordinates":[[[118.09,-34.21079],[117.50984,-34.4129],[117.0088,-34.09907],[117.08934,-33.58572],[117.66577,-33.38552],[118.16537,-33.69678],[118.09,-34.21079]]]}},{"type":"Feature","properties":{"hex_id":"7_-45","cx":116.9275,"cy":-34.6129},"geometry":{"type":"Polygon","coordinates":[[[117.43072,-34.92738],[116.84532,-35.12735],[116.34286,-34.81086],[116.42721,-34.29709],[117.0088,-34.09907],[117.50984,-34.4129],[117.43072,-34.92738]]]}},{"type":"Feature","properties":{"hex_id":"8_-40","cx":121.1967,"cy":-31.1145},"geometry":{"type":"Polygon","coordinates":[[[121.69577,-31.41317],[121.13767,-31.6277],[120.6392,-31.32709],[120.70048,-30.81421],[121.25525,-30.60147],[121.75207,-30.89983],[121.69577,-31.41317]]]}},{"type":"Feature","properties":{"hex_id":"8_-43","cx":119.3131,"cy":-33.2862},"geometry":{"type":"Polygon","coordinates":[[[119.817,-33.59208],[119.24359,-33.80037],[118.74034,-33.49254],[118.81206,-32.97893],[119.38189,-32.77255],[119.88357,-33.07789],[119.817,-33.59208]]]}},{"type":"Feature","properties":{"hex_id":"8_-44","cx":118.6679,"cy":-34.0066},"geometry":{"type":"Polygon","coordinates":[[[119.17342,-34.31499],[118.59479,-34.52119],[118.09,-34.21079],[118.16537,-33.69678],[118.74034,-33.49254],[119.24359,-33.80037],[119.17342,-34.31499]]]}},{"type":"Feature","properties":{"hex_id":"8_-45","cx":118.0139,"cy":-34.7253},"geometry":{"type":"Polygon","coordinates":[[[118.52094,-35.03634],[117.93702,-35.24044],[117.43072,-34.92738],[117.50984,-34.4129],[118.09,-34.21079],[118.59479,-34.52119],[118.52094,-35.03634]]]}},{"type":"Feature","properties":{"hex_id":"9_-32","cx":126.8671,"cy":-25.2817},"geometry":{"type":"Polygon","coordinates":[[[127.35489,-25.56126],[126.83691,-25.79608],[126.34945,-25.51486],[126.38181,-25.00052],[126.89711,-24.76719],[127.38272,-25.04673],[127.35489,-25.56126]]]}},{"type":"Feature","properties":{"hex_id":"9_-35","cx":125.1939,"cy":-27.5164},"geometry":{"type":"Polygon","coordinates":[[[125.68726,-27.80128],[125.15532,-28.02992],[124.66235,-27.74323],[124.70314,-27.22982],[125.2322,-27.0028],[125.72334,-27.2876],[125.68726,-27.80128]]]}},{"type":"Feature","properties":{"hex_id":"9_-38","cx":123.4524,"cy":-29.7307},"geometry":{"type":"Polygon","coordinates":[[[123.95117,-30.02158],[123.40474,-30.24409],[122.90641,-29.95134],[122.95628,-29.43819],[123.49959,-29.21743],[123.99615,-29.50809],[123.95117,-30.02158]]]}},{"type":"Feature","properties":{"hex_id":"9_-43","cx":120.3881,"cy":-33.3817},"geometry":{"type":"Polygon","coordinates":[[[120.89562,-33.68412],[120.32385,-33.89644],[119.817,-33.59208],[119.88357,-33.07789],[120.45182,-32.86752],[120.95701,-33.1694],[120.89562,-33.68412]]]}}]}